{"type":"FeatureCollection","features":[{"type":"Feature","properties":{"boroname":"Brooklyn"},"geometry":{"type":"MultiPolygon","coordinates":[[[[-73.9544,40.73911],[-73.95199,40.73875],[-73.95,40.738088],[-73.95,40.67],[-73.998838,40.67],[-73.99856,40.67134],[-73.99877,40.6716],[-73.99962,40.67],[-74.005091,40.67],[-74.00475,40.67072],[-74.00544,40.67092],[-74.005942,40.67],[-74.018521,40.67],[-74.01858,40.67039],[-74.01876,40.67108],[-74.01934,40.67162],[-74.01751,40.67103],[-74.017338,40.67],[-74.011565,40.67],[-74.01163,40.67058],[-74.013418,40.67],[-74.013524,40.67],[-74.01175,40.67066],[-74.01208,40.67093],[-74.01262,40.67084],[-74.01427,40.67138],[-74.01508,40.67069],[-74.0152,40.67075],[-74.01387,40.67188],[-74.01423,40.67213],[-74.01569,40.67104],[-74.01298,40.67333],[-74.01336,40.67359],[-74.01512,40.67216],[-74.01632,40.67291],[-74.01458,40.67441],[-74.01496,40.67468],[-74.01817,40.67194],[-74.0188,40.67225],[-74.01727,40.67361],[-74.01775,40.67405],[-74.01801,40.67391],[-74.0178,40.6741],[-74.01818,40.67446],[-74.01783,40.67526],[-74.0183,40.67546],[-74.01841,40.67537],[-74.01817,40.67529],[-74.01839,40.6751],[-74.01852,40.67527],[-74.01889,40.67509],[-74.01841,40.67552],[-74.0185,40.67584],[-74.01802,40.67588],[-74.01792,40.67651],[-74.01977,40.67661],[-74.01995,40.6771],[-74.01908,40.67714],[-74.01918,40.67783],[-74.01843,40.67791],[-74.01841,40.67841],[-74.01966,40.67839],[-74.01827,40.67855],[-74.01858,40.67898],[-74.01954,40.67897],[-74.01928,40.67965],[-74.0152,40.68198],[-74.01532,40.68211],[-74.01282,40.68362],[-74.01213,40.68291],[-74.01411,40.68171],[-74.01361,40.68122],[-74.01387,40.68101],[-74.01302,40.68041],[-74.00967,40.68327],[-74.01077,40.68436],[-74.01178,40.68376],[-74.01193,40.68389],[-74.00798,40.68628],[-74.00702,40.68653],[-74.00588,40.6862],[-74.00459,40.68822],[-74.00382,40.68893],[-74.00298,40.69043],[-74.00196,40.69014],[-74.00185,40.69039],[-74.00096,40.69013],[-74.0007,40.69061],[-74.00133,40.69146],[-74.00197,40.69184],[-74.00174,40.69241],[-74.00096,40.69407],[-73.99941,40.69636],[-73.99947,40.6967],[-73.99887,40.69692],[-73.9975,40.69964],[-73.99716,40.69979],[-73.99724,40.70014],[-73.99466,40.70343],[-73.995,40.70365],[-73.99457,40.70438],[-73.99213,40.70469],[-73.99186,40.70409],[-73.99095,40.70403],[-73.99023,40.70493],[-73.9883,40.70454],[-73.98829,40.70507],[-73.98796,40.70513],[-73.98687,40.70516],[-73.98653,40.70498],[-73.98643,40.70535],[-73.98344,40.70564],[-73.98337,40.70546],[-73.98274,40.70557],[-73.98093,40.70537],[-73.98091,40.70591],[-73.97956,40.70574],[-73.97905,40.70597],[-73.97893,40.70592],[-73.97924,40.70555],[-73.97896,40.7055],[-73.97882,40.70586],[-73.97893,40.7055],[-73.97874,40.70546],[-73.97864,40.70583],[-73.97868,40.70545],[-73.97847,40.70556],[-73.97839,40.70597],[-73.97885,40.70607],[-73.97834,40.706],[-73.97853,40.70488],[-73.97802,40.70429],[-73.97721,40.70421],[-73.97751,40.7032],[-73.97714,40.70301],[-73.97624,40.70478],[-73.97596,40.70472],[-73.97693,40.7028],[-73.97616,40.70217],[-73.97553,40.70304],[-73.97533,40.70295],[-73.97601,40.70195],[-73.97455,40.70159],[-73.9758,40.69975],[-73.97572,40.69957],[-73.97536,40.69958],[-73.97412,40.70131],[-73.97293,40.70029],[-73.97257,40.70008],[-73.97239,40.70017],[-73.97376,40.70153],[-73.97319,40.70167],[-73.97114,40.69992],[-73.97078,40.69998],[-73.97332,40.70241],[-73.97284,40.70273],[-73.96983,40.70025],[-73.96949,40.70052],[-73.97284,40.70335],[-73.97267,40.7035],[-73.96925,40.70136],[-73.96899,40.70175],[-73.97231,40.70384],[-73.97216,40.70397],[-73.9711,40.70346],[-73.97093,40.70362],[-73.97102,40.70382],[-73.97466,40.70607],[-73.97439,40.70633],[-73.97339,40.70573],[-73.97255,40.7062],[-73.97463,40.70768],[-73.97424,40.70802],[-73.97122,40.70579],[-73.9711,40.70585],[-73.97106,40.70695],[-73.97276,40.70883],[-73.97232,40.70908],[-73.97026,40.70689],[-73.97049,40.7054],[-73.97017,40.70536],[-73.97018,40.70493],[-73.96762,40.70335],[-73.96752,40.70344],[-73.96748,40.70395],[-73.9693,40.70509],[-73.96929,40.70709],[-73.96985,40.708],[-73.96994,40.7093],[-73.96961,40.71027],[-73.97007,40.71045],[-73.96966,40.7105],[-73.96977,40.71079],[-73.96937,40.71102],[-73.96991,40.71127],[-73.96931,40.71111],[-73.96923,40.71124],[-73.96882,40.71225],[-73.96887,40.71258],[-73.96844,40.71294],[-73.96885,40.71321],[-73.96724,40.71659],[-73.96711,40.71691],[-73.96725,40.71699],[-73.96631,40.71832],[-73.96512,40.71923],[-73.96539,40.71958],[-73.96528,40.72012],[-73.96503,40.72038],[-73.96448,40.72004],[-73.9644,40.72044],[-73.96276,40.7224],[-73.96166,40.72486],[-73.96211,40.72515],[-73.9619,40.72532],[-73.96154,40.72511],[-73.96116,40.72526],[-73.95833,40.72441],[-73.95804,40.72443],[-73.95794,40.72465],[-73.95795,40.72504],[-73.95843,40.7254],[-73.96012,40.72532],[-73.96029,40.72595],[-73.96162,40.72587],[-73.96162,40.72666],[-73.96102,40.7287],[-73.96143,40.73095],[-73.96226,40.73292],[-73.96229,40.73405],[-73.96157,40.73518],[-73.95983,40.73706],[-73.95838,40.7381],[-73.95693,40.73889],[-73.9544,40.73911],[-73.9544,40.73911]]]]}},{"type":"Feature","properties":{"boroname":"Queens"},"geometry":{"type":"MultiPolygon","coordinates":[[[[-73.95,40.755],[-73.95,40.73887],[-73.95138,40.73934],[-73.9538,40.73982],[-73.95741,40.73956],[-73.96073,40.73808],[-73.96217,40.73827],[-73.96213,40.73845],[-73.96261,40.7388],[-73.96221,40.74001],[-73.96179,40.74001],[-73.96125,40.74042],[-73.96194,40.74079],[-73.9618,40.7411],[-73.96122,40.74111],[-73.96107,40.74169],[-73.96136,40.74184],[-73.96111,40.74183],[-73.96155,40.74199],[-73.96119,40.74264],[-73.96054,40.74347],[-73.95977,40.7435],[-73.95971,40.74386],[-73.96012,40.74394],[-73.96006,40.7438],[-73.96057,40.74403],[-73.95963,40.74393],[-73.95939,40.74428],[-73.96013,40.74444],[-73.95923,40.74431],[-73.95878,40.74456],[-73.95944,40.7446],[-73.95888,40.74462],[-73.95876,40.74495],[-73.95967,40.74517],[-73.95849,40.74499],[-73.95845,40.74512],[-73.95925,40.74532],[-73.95934,40.74551],[-73.95906,40.74575],[-73.9585,40.74576],[-73.95914,40.746],[-73.95704,40.74892],[-73.95485,40.74804],[-73.95318,40.74773],[-73.95305,40.74809],[-73.95478,40.74843],[-73.95632,40.74908],[-73.95601,40.74937],[-73.95622,40.74952],[-73.956,40.74938],[-73.95576,40.7496],[-73.9562,40.74969],[-73.95546,40.74967],[-73.95535,40.75001],[-73.95513,40.74993],[-73.9552,40.74968],[-73.95507,40.74963],[-73.95452,40.75059],[-73.95465,40.75083],[-73.9545,40.75123],[-73.95131,40.75458],[-73.95097,40.755],[-73.95,40.755]]]]}},{"type":"Feature","properties":{"boroname":"Manhattan"},"geometry":{"type":"MultiPolygon","coordinates":[[[[-74.01093,40.68449],[-74.01193,40.68389],[-74.01218,40.6841],[-74.00835,40.6864],[-74.00816,40.68617],[-74.01093,40.68449],[-74.01093,40.68449]]],[[[-74.005,40.68761],[-74.00563,40.68678],[-74.00783,40.68739],[-74.00742,40.68821],[-74.005,40.68761],[-74.005,40.68761]]],[[[-74.00382,40.68893],[-74.00459,40.68822],[-74.00678,40.68883],[-74.00636,40.68967],[-74.00382,40.68893],[-74.00382,40.68893]]],[[[-74.00298,40.69043],[-74.00341,40.68961],[-74.00576,40.69024],[-74.00534,40.69109],[-74.00298,40.69043],[-74.00298,40.69043]]],[[[-74.04388,40.69019],[-74.04351,40.68969],[-74.0427,40.69016],[-74.04255,40.68996],[-74.04347,40.68964],[-74.04364,40.68877],[-74.04439,40.68852],[-74.04628,40.68933],[-74.0468,40.68995],[-74.04748,40.68961],[-74.04773,40.68992],[-74.04743,40.6898],[-74.04689,40.69006],[-74.0472,40.69042],[-74.04717,40.69099],[-74.04615,40.69112],[-74.04388,40.69019],[-74.04388,40.69019]]],[[[-74.00199,40.69233],[-74.0018,40.69227],[-74.00216,40.69224],[-74.00206,40.69244],[-74.00199,40.69233],[-74.00199,40.69233]]],[[[-74.00133,40.69146],[-74.0007,40.69061],[-74.00479,40.69176],[-74.00441,40.69253],[-74.00197,40.69184],[-74.00133,40.69146],[-74.00133,40.69146]]],[[[-74.01675,40.69334],[-74.0154,40.69307],[-74.01539,40.6933],[-74.01517,40.69326],[-74.01526,40.69304],[-74.01513,40.69324],[-74.01494,40.69314],[-74.01516,40.69302],[-74.01422,40.69282],[-74.01344,40.69212],[-74.0125,40.6923],[-74.0123,40.69257],[-74.01181,40.69248],[-74.0119,40.69209],[-74.01246,40.69221],[-74.01333,40.69202],[-74.01261,40.69136],[-74.01203,40.6915],[-74.0126,40.69133],[-74.01253,40.69115],[-74.01183,40.69106],[-74.0122,40.69103],[-74.01221,40.69079],[-74.01197,40.69077],[-74.01198,40.69061],[-74.01223,40.69046],[-74.01231,40.68928],[-74.01317,40.68815],[-74.01488,40.68725],[-74.01605,40.68734],[-74.01705,40.68688],[-74.01665,40.68642],[-74.01514,40.68644],[-74.01667,40.68631],[-74.01712,40.68684],[-74.02054,40.68527],[-74.02021,40.68483],[-74.0194,40.68509],[-74.02095,40.68438],[-74.02028,40.68481],[-74.02061,40.68524],[-74.02224,40.68452],[-74.02212,40.68435],[-74.02234,40.68448],[-74.02259,40.68436],[-74.02213,40.68377],[-74.02306,40.68292],[-74.02319,40.683],[-74.02237,40.68378],[-74.02276,40.68428],[-74.02354,40.684],[-74.02465,40.68398],[-74.02567,40.68424],[-74.02633,40.6848],[-74.02663,40.68553],[-74.02643,40.68618],[-74.02021,40.69203],[-74.01973,40.69311],[-74.01675,40.69334],[-74.01675,40.69334]]],[[[-74.00154,40.69279],[-74.00174,40.69241],[-74.00401,40.69321],[-74.00345,40.69405],[-74.00127,40.6933],[-74.00154,40.69279],[-74.00154,40.69279]]],[[[-74.00078,40.69429],[-74.00096,40.69407],[-74.00301,40.69478],[-74.0024,40.69571],[-74.00027,40.69497],[-74.00078,40.69429],[-74.00078,40.69429]]],[[[-73.99838,40.69806],[-73.99887,40.69716],[-74.00105,40.69791],[-74.00049,40.69876],[-73.99838,40.69806],[-73.99838,40.69806]]],[[[-73.998,40.6988],[-74.00002,40.69947],[-73.99947,40.70032],[-73.9975,40.69964],[-73.998,40.6988],[-73.998,40.6988]]],[[[-74.03995,40.70089],[-74.03771,40.69934],[-74.0381,40.69904],[-74.03823,40.69837],[-74.039,40.69837],[-74.03934,40.69812],[-74.04124,40.69954],[-74.04175,40.69915],[-74.03991,40.6977],[-74.04166,40.69645],[-74.04367,40.69802],[-74.0427,40.6988],[-74.04297,40.699],[-74.0411,40.70049],[-74.0408,40.70027],[-74.03995,40.70089],[-74.03995,40.70089]]],[[[-73.99629,40.70143],[-73.9967,40.70088],[-73.99814,40.70152],[-73.99619,40.70338],[-73.99514,40.70297],[-73.99629,40.70143],[-73.99629,40.70143]]],[[[-73.99502,40.70315],[-73.99545,40.70328],[-73.99529,40.70355],[-73.9948,40.70329],[-73.99502,40.70315],[-73.99502,40.70315]]],[[[-73.99477,40.70395],[-73.99488,40.70379],[-73.99491,40.7038],[-73.99493,40.70377],[-73.99503,40.70381],[-73.99488,40.70401],[-73.99484,40.70399],[-73.99477,40.70395],[-73.99477,40.70395]]],[[[-73.98237,40.70554],[-73.98242,40.70582],[-73.98102,40.7059],[-73.9823,40.70574],[-73.98237,40.70554],[-73.98237,40.70554]]],[[[-73.96715,40.71832],[-73.96656,40.71802],[-73.96731,40.71831],[-73.96707,40.71844],[-73.96715,40.71832],[-73.96715,40.71832]]],[[[-73.96644,40.71924],[-73.96574,40.71871],[-73.96664,40.71913],[-73.96651,40.71943],[-73.96644,40.71924],[-73.96644,40.71924]]],[[[-73.96503,40.72038],[-73.96512,40.72032],[-73.96568,40.72068],[-73.9656,40.72074],[-73.96503,40.72038],[-73.96503,40.72038]]],[[[-73.96483,40.7208],[-73.96436,40.72048],[-73.96503,40.72079],[-73.96485,40.72095],[-73.96483,40.7208],[-73.96483,40.7208]]],[[[-73.96403,40.72088],[-73.96407,40.7208],[-73.96438,40.72099],[-73.96431,40.72106],[-73.96403,40.72088],[-73.96403,40.72088]]],[[[-73.96424,40.72061],[-73.96427,40.72058],[-73.96495,40.72142],[-73.96484,40.72146],[-73.9642,40.72065],[-73.96424,40.72061],[-73.96424,40.72061]]],[[[-73.96237,40.72421],[-73.96201,40.72399],[-73.96207,40.72388],[-73.96247,40.72413],[-73.96237,40.72421],[-73.96237,40.72421]]],[[[-73.96128,40.73016],[-73.96255,40.72974],[-73.96225,40.72999],[-73.96128,40.73016],[-73.96128,40.73016]]],[[[-73.96197,40.73158],[-73.96167,40.73148],[-73.96366,40.73125],[-73.9637,40.73144],[-73.96197,40.73158],[-73.96197,40.73158]]],[[[-73.96052,40.74411],[-73.96057,40.74403],[-73.96067,40.74405],[-73.96065,40.74413],[-73.96052,40.74411],[-73.96052,40.74411]]],[[[-73.96421,40.7466],[-73.96458,40.74645],[-73.96416,40.74687],[-73.96421,40.7466],[-73.96421,40.7466]]],[[[-73.95764,40.74841],[-73.95752,40.7483],[-73.95784,40.74834],[-73.95769,40.74854],[-73.95764,40.74841],[-73.95764,40.74841]]],[[[-73.954926,40.755],[-73.9552,40.75477],[-73.95791,40.75211],[-73.96091,40.7498],[-73.96133,40.7496],[-73.96154,40.74972],[-73.96069,40.7512],[-73.96001,40.75183],[-73.95902,40.7536],[-73.95846,40.75395],[-73.95755,40.755],[-73.954926,40.755]]],[[[-73.961692,40.755],[-73.96223,40.75452],[-73.96817,40.74767],[-73.96894,40.74652],[-73.97079,40.74441],[-73.97094,40.74447],[-73.97111,40.7442],[-73.9707,40.74399],[-73.97117,40.74411],[-73.97136,40.74384],[-73.97121,40.74377],[-73.97189,40.74272],[-73.97174,40.74266],[-73.97196,40.74234],[-73.97229,40.74072],[-73.97222,40.74031],[-73.97266,40.73922],[-73.97249,40.7358],[-73.97287,40.73577],[-73.97441,40.73641],[-73.97446,40.73629],[-73.97403,40.73613],[-73.97447,40.73628],[-73.9745,40.73606],[-73.97414,40.73596],[-73.9745,40.73604],[-73.97451,40.73589],[-73.97425,40.7358],[-73.97447,40.73567],[-73.97306,40.73518],[-73.97281,40.73552],[-73.97293,40.73561],[-73.97276,40.73551],[-73.97295,40.73507],[-73.9733,40.73524],[-73.9733,40.73504],[-73.97354,40.73494],[-73.97444,40.73532],[-73.97396,40.73342],[-73.97368,40.73321],[-73.97387,40.73307],[-73.97341,40.73128],[-73.97196,40.73],[-73.97148,40.72925],[-73.97143,40.72849],[-73.97169,40.72741],[-73.97149,40.72735],[-73.97357,40.7186],[-73.97491,40.71511],[-73.97671,40.71154],[-73.978,40.71056],[-73.98129,40.71022],[-73.98125,40.70983],[-73.98839,40.70913],[-73.98864,40.70991],[-73.9888,40.70997],[-73.99808,40.70851],[-74.00119,40.70686],[-74.00098,40.70642],[-74.00141,40.70618],[-74.00059,40.70541],[-74.00145,40.70487],[-74.00206,40.70542],[-74.00257,40.70552],[-74.00269,40.70545],[-74.00197,40.70474],[-74.00243,40.70468],[-74.00332,40.70563],[-74.00383,40.7053],[-74.00263,40.70422],[-74.00287,40.70408],[-74.00406,40.70515],[-74.00602,40.70387],[-74.00614,40.70398],[-74.0066,40.70369],[-74.0053,40.70256],[-74.00549,40.70243],[-74.00554,40.70265],[-74.00568,40.70258],[-74.00679,40.70357],[-74.00929,40.70193],[-74.0087,40.70114],[-74.00776,40.70155],[-74.00759,40.70133],[-74.00854,40.70092],[-74.00835,40.70067],[-74.00862,40.70055],[-74.00958,40.70184],[-74.01118,40.70145],[-74.01111,40.70128],[-74.01129,40.70125],[-74.01082,40.7002],[-74.01115,40.7009],[-74.01136,40.70085],[-74.01133,40.70057],[-74.0115,40.70082],[-74.01173,40.70077],[-74.01163,40.70046],[-74.01185,40.70074],[-74.01209,40.70068],[-74.01196,40.70004],[-74.01239,40.70062],[-74.01259,40.70057],[-74.01261,40.70011],[-74.01291,40.70052],[-74.01311,40.70051],[-74.01311,40.69977],[-74.01327,40.7005],[-74.01349,40.70048],[-74.01353,40.70011],[-74.01367,40.70013],[-74.01356,40.70094],[-74.01395,40.70099],[-74.01422,40.70011],[-74.01415,40.70058],[-74.01429,40.70064],[-74.01467,40.70021],[-74.01432,40.70066],[-74.01464,40.70082],[-74.01507,40.70032],[-74.01467,40.70083],[-74.01502,40.70099],[-74.01514,40.70084],[-74.01579,40.70135],[-74.01715,40.70271],[-74.01767,40.70359],[-74.01788,40.70354],[-74.01767,40.70361],[-74.01757,40.70418],[-74.01779,40.70423],[-74.01782,40.70394],[-74.01795,40.70398],[-74.01784,40.70424],[-74.01845,40.70416],[-74.01866,40.70443],[-74.01748,40.70467],[-74.01811,40.70455],[-74.01889,40.70473],[-74.01934,40.70609],[-74.01912,40.70698],[-74.01863,40.70714],[-74.01885,40.70697],[-74.01854,40.70692],[-74.01819,40.70782],[-74.01886,40.70805],[-74.01777,40.71283],[-74.0178,40.71235],[-74.01662,40.71216],[-74.01662,40.71276],[-74.01632,40.71341],[-74.01758,40.7136],[-74.01772,40.71307],[-74.01671,40.71862],[-74.01321,40.71832],[-74.01307,40.71892],[-74.01291,40.71973],[-74.01346,40.7198],[-74.01341,40.72002],[-74.01638,40.72038],[-74.01631,40.72073],[-74.013,40.72033],[-74.0129,40.72087],[-74.01569,40.72121],[-74.01562,40.72154],[-74.01316,40.72125],[-74.01312,40.72147],[-74.01362,40.72159],[-74.01254,40.7215],[-74.01165,40.72587],[-74.0152,40.72636],[-74.01512,40.72679],[-74.01154,40.72645],[-74.01138,40.72823],[-74.01439,40.72846],[-74.01404,40.73069],[-74.01116,40.73045],[-74.01094,40.73301],[-74.014,40.73307],[-74.014,40.73333],[-74.0109,40.7333],[-74.01073,40.73344],[-74.01083,40.73401],[-74.01202,40.73406],[-74.012,40.73434],[-74.01081,40.73428],[-74.01048,40.73806],[-74.01109,40.73809],[-74.01114,40.73839],[-74.01045,40.73836],[-74.01039,40.73917],[-74.01158,40.73926],[-74.01146,40.74058],[-74.01266,40.74075],[-74.00949,40.74074],[-74.00941,40.74115],[-74.00962,40.74136],[-74.01021,40.74161],[-74.01038,40.7414],[-74.0114,40.74182],[-74.01084,40.7426],[-74.01029,40.74236],[-74.01013,40.74258],[-74.00919,40.74229],[-74.00909,40.74289],[-74.00962,40.74295],[-74.00958,40.74326],[-74.01215,40.74356],[-74.01202,40.74394],[-74.00951,40.74368],[-74.00944,40.74397],[-74.0089,40.74392],[-74.00873,40.74488],[-74.00961,40.745],[-74.00956,40.74529],[-74.00992,40.74533],[-74.01,40.74496],[-74.00987,40.74492],[-74.01017,40.74494],[-74.00997,40.74532],[-74.01047,40.74539],[-74.01055,40.74501],[-74.01042,40.74498],[-74.01076,40.74501],[-74.01059,40.74502],[-74.01053,40.74538],[-74.0111,40.74545],[-74.01117,40.74508],[-74.01104,40.74505],[-74.01139,40.74507],[-74.01123,40.74508],[-74.01115,40.74545],[-74.01174,40.74552],[-74.01167,40.74511],[-74.01184,40.74513],[-74.01178,40.7456],[-74.01168,40.74598],[-74.00946,40.74575],[-74.00936,40.74634],[-74.01159,40.7466],[-74.01148,40.74699],[-74.00924,40.74676],[-74.00914,40.74736],[-74.01141,40.74763],[-74.0113,40.74801],[-74.00906,40.74779],[-74.00895,40.74841],[-74.01122,40.74868],[-74.01111,40.74905],[-74.00995,40.74893],[-74.00956,40.74997],[-74.00925,40.74999],[-74.0091,40.75037],[-74.01068,40.75102],[-74.01056,40.75132],[-74.009,40.75065],[-74.00853,40.75188],[-74.00914,40.7521],[-74.00865,40.75194],[-74.00906,40.75221],[-74.00858,40.75204],[-74.00934,40.75236],[-74.00848,40.75202],[-74.00843,40.75216],[-74.00997,40.75293],[-74.00879,40.75235],[-74.00869,40.75249],[-74.00835,40.75235],[-74.00762,40.75428],[-74.00774,40.75434],[-74.00747,40.75448],[-74.00728,40.75474],[-74.00741,40.75479],[-74.00714,40.75493],[-74.00709,40.755],[-73.961692,40.755]],[[-74.00937,40.74219],[-74.01009,40.74249],[-74.0102,40.74233],[-74.00982,40.74217],[-74.01017,40.74167],[-74.00936,40.74142],[-74.00924,40.74207],[-74.00937,40.74219],[-74.00937,40.74219]]]]}}]}
